{"type": "FeatureCollection", "features": [{"type": "Feature", "properties": {"Sample_ID": 1.02, "SiteID": "29962", "parcel_count": 1926, "total_acres": 2333.6, "median_parcel_value": 313392, "total_population": 13485.0, "pct_white": 44.2, "pct_black": 29.1, "pct_aian": 0.7, "pct_asian": 4.5, "pct_nhpi": 0.0, "pct_other": 13.6, "pct_two_plus": 7.9, "total_households": 5333.0, "median_hh_income": 57809.0, "count_blocks": 234, "count_block_groups": 22}, "geometry": {"type": "Polygon", "coordinates": [[[-78.903788, 36.043684], [-78.903554, 36.043682], [-78.903343, 36.043754], [-78.901817, 36.044276], [-78.901635, 36.044357], [-78.90145, 36.044053], [-78.900711, 36.042831], [-78.900025, 36.043017], [-78.89942, 36.04318], [-78.899187, 36.0427], [-78.900383, 36.042314], [-78.900247, 36.042022], [-78.900257, 36.042015], [-78.900145, 36.041801], [-78.899128, 36.039608], [-78.898186, 36.039893], [-78.897307, 36.04016], [-78.896297, 36.040067], [-78.895947, 36.039063], [-78.896253, 36.037054], [-78.894622, 36.036278], [-78.89301, 36.035511], [-78.893052, 36.035185], [-78.892345, 36.034751], [-78.892196, 36.03466], [-78.891354, 36.03396], [-78.891057, 36.0327], [-78.890809, 36.031416], [-78.891199, 36.031366], [-78.891445, 36.031334], [-78.891349, 36.030911], [-78.891149, 36.030025], [-78.891069, 36.029673], [-78.890573, 36.029747], [-78.890471, 36.029706], [-78.890446, 36.027249], [-78.891923, 36.02732], [-78.892592, 36.028156], [-78.892953, 36.028126], [-78.893803, 36.028055], [-78.89417, 36.028024], [-78.894509, 36.027728], [-78.895052, 36.027253], [-78.895051, 36.027248], [-78.895059, 36.027242], [-78.894528, 36.023588], [-78.895055, 36.022154], [-78.89487, 36.019674], [-78.894867, 36.019635], [-78.894871, 36.019632], [-78.895238, 36.019383], [-78.895882, 36.018979], [-78.895886, 36.018942], [-78.896021, 36.017838], [-78.896433, 36.017866], [-78.900357, 36.01904], [-78.900411, 36.019056], [-78.900921, 36.018131], [-78.903259, 36.017813], [-78.903278, 36.017767], [-78.903617, 36.016936], [-78.905845, 36.017012], [-78.905845, 36.017012], [-78.907576, 36.017072], [-78.908106, 36.01709], [-78.908375, 36.016127], [-78.90889, 36.016104], [-78.908874, 36.015877], [-78.909642, 36.015735], [-78.910652, 36.015789], [-78.910761, 36.015544], [-78.91111, 36.011022], [-78.911619, 36.011023], [-78.911679, 36.010136], [-78.912863, 36.010139], [-78.912872, 36.009588], [-78.912483, 36.009557], [-78.91251, 36.009164], [-78.912397, 36.008845], [-78.912303, 36.008052], [-78.912958, 36.002445], [-78.912972, 36.002453], [-78.915345, 36.00371], [-78.919819, 36.00608], [-78.926302, 36.007198], [-78.929378, 36.008348], [-78.931342, 36.009919], [-78.933877, 36.013313], [-78.932339, 36.014112], [-78.932116, 36.015959], [-78.931599, 36.015933], [-78.930876, 36.014506], [-78.930868, 36.014504], [-78.93068, 36.014469], [-78.928005, 36.013977], [-78.927965, 36.014013], [-78.926696, 36.015166], [-78.926623, 36.015239], [-78.926532, 36.016281], [-78.923114, 36.016156], [-78.923089, 36.016155], [-78.923069, 36.016191], [-78.922534, 36.017129], [-78.922605, 36.019355], [-78.923242, 36.022176], [-78.923236, 36.022181], [-78.923241, 36.022195], [-78.922696, 36.022591], [-78.922746, 36.024656], [-78.922042, 36.025526], [-78.922056, 36.025539], [-78.922365, 36.025832], [-78.922517, 36.025977], [-78.922526, 36.025975], [-78.923225, 36.025811], [-78.924192, 36.026643], [-78.924193, 36.026643], [-78.92414, 36.027893], [-78.923242, 36.028236], [-78.923242, 36.028239], [-78.923195, 36.028423], [-78.923101, 36.028802], [-78.923109, 36.028806], [-78.924947, 36.029588], [-78.928669, 36.02917], [-78.929914, 36.031128], [-78.929916, 36.032985], [-78.92916, 36.033203], [-78.929044, 36.033871], [-78.929039, 36.033871], [-78.929038, 36.033871], [-78.926579, 36.03411], [-78.925535, 36.034563], [-78.9254, 36.03577], [-78.924719, 36.036066], [-78.92445, 36.03669], [-78.924149, 36.037388], [-78.919622, 36.038237], [-78.91953, 36.038292], [-78.91953, 36.038293], [-78.91525, 36.040848], [-78.914339, 36.041607], [-78.9132, 36.041902], [-78.911141, 36.041482], [-78.910699, 36.040788], [-78.909613, 36.040841], [-78.90918, 36.041392], [-78.90937, 36.042859], [-78.908152, 36.043248], [-78.907924, 36.045571], [-78.906578, 36.045565], [-78.906535, 36.044404], [-78.905615, 36.0437], [-78.904695, 36.043692], [-78.903788, 36.043684]]]}}, {"type": "Feature", "properties": {"Sample_ID": 5.0, "SiteID": "27508", "parcel_count": 874, "total_acres": 274.1, "median_parcel_value": 367749, "total_population": 2185.0, "pct_white": 33.0, "pct_black": 42.3, "pct_aian": 0.9, "pct_asian": 5.5, "pct_nhpi": 0.0, "pct_other": 10.0, "pct_two_plus": 8.2, "total_households": 1046.0, "median_hh_income": 66445.0, "count_blocks": 57, "count_block_groups": 7}, "geometry": {"type": "Polygon", "coordinates": [[[-78.916066, 35.997493], [-78.915172, 35.996731], [-78.915098, 35.996734], [-78.915085, 35.996723], [-78.913214, 35.996719], [-78.912866, 35.995441], [-78.910659, 35.992835], [-78.91072, 35.99164], [-78.913078, 35.991548], [-78.913147, 35.989683], [-78.914285, 35.98965], [-78.914264, 35.990478], [-78.915768, 35.990389], [-78.915912, 35.989216], [-78.917189, 35.986039], [-78.916949, 35.985031], [-78.917921, 35.985164], [-78.918449, 35.9846], [-78.919158, 35.984634], [-78.919679, 35.985203], [-78.922271, 35.985212], [-78.92278, 35.985931], [-78.924712, 35.98552], [-78.924713, 35.98552], [-78.924709, 35.985555], [-78.924647, 35.986176], [-78.925411, 35.986686], [-78.927303, 35.986123], [-78.92905, 35.98514], [-78.929071, 35.985128], [-78.929655, 35.985388], [-78.929325, 35.985949], [-78.92585, 35.987877], [-78.926534, 35.988321], [-78.925944, 35.989462], [-78.925733, 35.989966], [-78.925333, 35.990724], [-78.9249, 35.990528], [-78.923154, 35.992073], [-78.919696, 35.99209], [-78.919337, 35.994663], [-78.917911, 35.997467], [-78.918213, 35.999052], [-78.917438, 35.999911], [-78.917401, 35.999908], [-78.916809, 35.999854], [-78.916446, 35.998701], [-78.916312, 35.998275], [-78.916066, 35.997493]]]}}, {"type": "Feature", "properties": {"Sample_ID": 10.01, "SiteID": "29754", "parcel_count": 1354, "total_acres": 446.0, "median_parcel_value": 261628, "total_population": 5061.0, "pct_white": 18.2, "pct_black": 55.5, "pct_aian": 1.3, "pct_asian": 2.5, "pct_nhpi": 0.1, "pct_other": 15.7, "pct_two_plus": 6.7, "total_households": 1400.0, "median_hh_income": 35376.0, "count_blocks": 106, "count_block_groups": 8}, "geometry": {"type": "Polygon", "coordinates": [[[-78.877531, 35.99352], [-78.877919, 35.991919], [-78.878174, 35.990869], [-78.878324, 35.989215], [-78.878615, 35.989051], [-78.879056, 35.988802], [-78.878799, 35.987906], [-78.877331, 35.987615], [-78.877127, 35.986571], [-78.876586, 35.986062], [-78.87651, 35.98599], [-78.875377, 35.985534], [-78.875321, 35.984495], [-78.876656, 35.983709], [-78.876532, 35.982051], [-78.877402, 35.98174], [-78.877938, 35.980729], [-78.877336, 35.980023], [-78.877699, 35.979473], [-78.8777, 35.979472], [-78.886731, 35.983403], [-78.889203, 35.984479], [-78.890273, 35.984944], [-78.89386, 35.986505], [-78.894158, 35.986635], [-78.894127, 35.98669], [-78.893842, 35.987204], [-78.894667, 35.988917], [-78.894394, 35.989115], [-78.893387, 35.9901], [-78.893318, 35.99069], [-78.895484, 35.992033], [-78.895608, 35.99211], [-78.895253, 35.992498], [-78.894657, 35.993195], [-78.89366, 35.994362], [-78.892881, 35.993867], [-78.88921, 35.99409], [-78.888663, 35.993187], [-78.884842, 35.993477], [-78.884563, 35.9927], [-78.883163, 35.992571], [-78.881804, 35.994385], [-78.877531, 35.99352]]]}}, {"type": "Feature", "properties": {"Sample_ID": 10.02, "SiteID": "30659", "parcel_count": 2512, "total_acres": 1106.7, "median_parcel_value": 248069.5, "total_population": 7097.0, "pct_white": 11.7, "pct_black": 46.0, "pct_aian": 2.6, "pct_asian": 0.6, "pct_nhpi": 0.0, "pct_other": 31.9, "pct_two_plus": 7.1, "total_households": 2220.0, "median_hh_income": 39014.0, "count_blocks": 130, "count_block_groups": 16}, "geometry": {"type": "Polygon", "coordinates": [[[-78.870535, 36.006079], [-78.870214, 36.005574], [-78.86947, 36.005578], [-78.867746, 36.006836], [-78.867045, 36.004859], [-78.86745, 36.00209], [-78.864688, 35.998962], [-78.86452, 35.997406], [-78.863727, 35.997013], [-78.863345, 35.995769], [-78.859222, 35.995487], [-78.859105, 35.993964], [-78.858357, 35.993676], [-78.85824, 35.99276], [-78.85651, 35.992096], [-78.856542, 35.99204], [-78.856819, 35.992068], [-78.860368, 35.986203], [-78.86153, 35.98394], [-78.863974, 35.980006], [-78.867196, 35.978326], [-78.867197, 35.978326], [-78.868155, 35.977826], [-78.86848, 35.97742], [-78.869118, 35.976622], [-78.868155, 35.97516], [-78.867716, 35.974493], [-78.867884, 35.973541], [-78.87321, 35.977178], [-78.874478, 35.978044], [-78.884195, 35.982282], [-78.886731, 35.983403], [-78.8777, 35.979472], [-78.877699, 35.979473], [-78.877336, 35.980023], [-78.877938, 35.980729], [-78.877402, 35.98174], [-78.876532, 35.982051], [-78.876656, 35.983709], [-78.875321, 35.984495], [-78.875377, 35.985534], [-78.87651, 35.98599], [-78.876586, 35.986062], [-78.877127, 35.986571], [-78.877331, 35.987615], [-78.878799, 35.987906], [-78.879056, 35.988802], [-78.878615, 35.989051], [-78.878324, 35.989215], [-78.878174, 35.990869], [-78.877919, 35.991919], [-78.876454, 35.992474], [-78.876266, 35.994264], [-78.877149, 35.994818], [-78.878686, 35.994495], [-78.880003, 35.994888], [-78.880344, 35.995713], [-78.881657, 35.99581], [-78.881631, 35.996743], [-78.880628, 35.997126], [-78.880546, 35.998665], [-78.878721, 36.000081], [-78.874049, 36.008611], [-78.872042, 36.008983], [-78.87142, 36.007602], [-78.870065, 36.007471], [-78.870535, 36.006079]]]}}, {"type": "Feature", "properties": {"Sample_ID": 13.01, "SiteID": "28175", "parcel_count": 685, "total_acres": 225.8, "median_parcel_value": 223496, "total_population": 1279.0, "pct_white": 9.9, "pct_black": 65.5, "pct_aian": 1.2, "pct_asian": 1.1, "pct_nhpi": 0.2, "pct_other": 16.0, "pct_two_plus": 6.1, "total_households": 897.0, "median_hh_income": 48506.0, "count_blocks": 62, "count_block_groups": 6}, "geometry": {"type": "Polygon", "coordinates": [[[-78.889203, 35.984479], [-78.889175, 35.983105], [-78.890047, 35.98134], [-78.890048, 35.981337], [-78.890373, 35.979549], [-78.890837, 35.978817], [-78.891066, 35.978456], [-78.8913, 35.978087], [-78.89302, 35.977835], [-78.893485, 35.976647], [-78.896578, 35.977296], [-78.900843, 35.976483], [-78.900214, 35.978341], [-78.900465, 35.979715], [-78.90209, 35.980331], [-78.900491, 35.981772], [-78.900983, 35.982692], [-78.902151, 35.982782], [-78.902151, 35.982783], [-78.901499, 35.983651], [-78.900444, 35.983977], [-78.899021, 35.984247], [-78.89768, 35.983782], [-78.897773, 35.985028], [-78.896705, 35.985869], [-78.897105, 35.986834], [-78.896595, 35.987687], [-78.895867, 35.987316], [-78.895786, 35.987275], [-78.895522, 35.987141], [-78.895098, 35.987005], [-78.894158, 35.986635], [-78.89386, 35.986505], [-78.890273, 35.984944], [-78.889203, 35.984479]]]}}, {"type": "Feature", "properties": {"Sample_ID": 14.0, "SiteID": "11069", "parcel_count": 1409, "total_acres": 1257.9, "median_parcel_value": 243614, "total_population": 4174.0, "pct_white": 5.4, "pct_black": 69.2, "pct_aian": 0.6, "pct_asian": 0.6, "pct_nhpi": 0.0, "pct_other": 17.9, "pct_two_plus": 6.3, "total_households": 1972.0, "median_hh_income": 49699.0, "count_blocks": 95, "count_block_groups": 10}, "geometry": {"type": "Polygon", "coordinates": [[[-78.865535, 35.971276], [-78.866499, 35.969582], [-78.867099, 35.966283], [-78.866007, 35.963105], [-78.867518, 35.963046], [-78.867509, 35.962562], [-78.87021, 35.9626], [-78.871041, 35.96108], [-78.870159, 35.961063], [-78.870136, 35.960313], [-78.868047, 35.960239], [-78.867975, 35.959093], [-78.866926, 35.958864], [-78.866855, 35.958435], [-78.868536, 35.957842], [-78.869835, 35.957901], [-78.869854, 35.958625], [-78.872624, 35.958871], [-78.873798, 35.957319], [-78.875324, 35.957309], [-78.875376, 35.956268], [-78.876719, 35.956405], [-78.876742, 35.9576], [-78.879814, 35.95725], [-78.883493, 35.956872], [-78.884051, 35.958053], [-78.884529, 35.958611], [-78.885261, 35.95857], [-78.886746, 35.96035], [-78.886239, 35.960908], [-78.886627, 35.961534], [-78.88766, 35.962443], [-78.88866, 35.962405], [-78.887896, 35.963436], [-78.89122, 35.967086], [-78.890578, 35.968158], [-78.891079, 35.968637], [-78.891, 35.969248], [-78.892366, 35.970389], [-78.894788, 35.970248], [-78.893177, 35.975356], [-78.893553, 35.976472], [-78.893485, 35.976647], [-78.89302, 35.977835], [-78.8913, 35.978087], [-78.891066, 35.978456], [-78.890837, 35.978817], [-78.890373, 35.979549], [-78.890048, 35.981337], [-78.890047, 35.98134], [-78.889175, 35.983105], [-78.889203, 35.984479], [-78.886731, 35.983403], [-78.884195, 35.982282], [-78.874478, 35.978044], [-78.866082, 35.97231], [-78.865535, 35.971276]]]}}, {"type": "Feature", "properties": {"Sample_ID": 16.03, "SiteID": "25387", "parcel_count": 1213, "total_acres": 919.7, "median_parcel_value": 406546, "total_population": 2635.0, "pct_white": 50.4, "pct_black": 29.7, "pct_aian": 0.6, "pct_asian": 7.3, "pct_nhpi": 0.0, "pct_other": 4.7, "pct_two_plus": 7.3, "total_households": 994.0, "median_hh_income": 52482.0, "count_blocks": 48, "count_block_groups": 6}, "geometry": {"type": "Polygon", "coordinates": [[[-78.914059, 36.104412], [-78.914012, 36.102833], [-78.912902, 36.10279], [-78.912941, 36.102062], [-78.913641, 36.101457], [-78.914942, 36.101257], [-78.91484, 36.099809], [-78.914533, 36.099365], [-78.913275, 36.09941], [-78.913257, 36.098065], [-78.912472, 36.097407], [-78.912446, 36.096567], [-78.913879, 36.096363], [-78.914456, 36.093137], [-78.913868, 36.089989], [-78.917267, 36.090061], [-78.91731, 36.089511], [-78.917319, 36.088907], [-78.913693, 36.088847], [-78.91361, 36.08846], [-78.914696, 36.088424], [-78.915181, 36.087925], [-78.914715, 36.087215], [-78.913819, 36.087291], [-78.913405, 36.083144], [-78.914993, 36.083198], [-78.915046, 36.077586], [-78.916838, 36.077887], [-78.919307, 36.077188], [-78.920814, 36.077332], [-78.92178, 36.07609], [-78.922986, 36.076006], [-78.923377, 36.076715], [-78.925056, 36.076798], [-78.924848, 36.078942], [-78.925534, 36.079507], [-78.928204, 36.080235], [-78.928993, 36.079211], [-78.930077, 36.079282], [-78.930688, 36.082112], [-78.933588, 36.086616], [-78.933691, 36.088654], [-78.931712, 36.097104], [-78.930244, 36.096919], [-78.93009, 36.097697], [-78.931559, 36.097929], [-78.931182, 36.099799], [-78.925552, 36.099561], [-78.926342, 36.097872], [-78.926328, 36.094124], [-78.927069, 36.094076], [-78.92713, 36.092823], [-78.925017, 36.092795], [-78.924981, 36.093304], [-78.923254, 36.09334], [-78.923225, 36.094132], [-78.921983, 36.094679], [-78.920946, 36.097602], [-78.91781, 36.097641], [-78.917772, 36.098619], [-78.916075, 36.098651], [-78.916059, 36.099787], [-78.918126, 36.099896], [-78.918228, 36.101316], [-78.921261, 36.101337], [-78.921236, 36.103129], [-78.917835, 36.103194], [-78.916827, 36.104443], [-78.915911, 36.104686], [-78.915703, 36.106354], [-78.914505, 36.106363], [-78.914089, 36.105871], [-78.914059, 36.104412]]]}}, {"type": "Feature", "properties": {"Sample_ID": 16.04, "SiteID": "22942", "parcel_count": 1212, "total_acres": 1128.1, "median_parcel_value": 442976, "total_population": 2541.0, "pct_white": 75.7, "pct_black": 13.7, "pct_aian": 0.2, "pct_asian": 2.4, "pct_nhpi": 0.0, "pct_other": 2.1, "pct_two_plus": 6.0, "total_households": 810.0, "median_hh_income": 104004.0, "count_blocks": 54, "count_block_groups": 6}, "geometry": {"type": "Polygon", "coordinates": [[[-78.944065, 36.086335], [-78.942646, 36.085463], [-78.940681, 36.083266], [-78.940476, 36.082093], [-78.938708, 36.081925], [-78.939006, 36.077692], [-78.937925, 36.07759], [-78.938464, 36.076009], [-78.941155, 36.076153], [-78.941207, 36.070116], [-78.946557, 36.069873], [-78.953371, 36.070183], [-78.953521, 36.067497], [-78.956612, 36.067687], [-78.960976, 36.066302], [-78.9709, 36.066124], [-78.971501, 36.066613], [-78.973947, 36.068262], [-78.974984, 36.069499], [-78.976969, 36.069762], [-78.978704, 36.070758], [-78.978941, 36.076714], [-78.971606, 36.076964], [-78.969184, 36.076123], [-78.966528, 36.075837], [-78.963584, 36.076306], [-78.956799, 36.075913], [-78.956129, 36.076418], [-78.956008, 36.080088], [-78.955232, 36.08007], [-78.955141, 36.081106], [-78.954228, 36.081092], [-78.953241, 36.082289], [-78.953122, 36.08523], [-78.951992, 36.086365], [-78.949264, 36.086964], [-78.946813, 36.087252], [-78.944065, 36.086335]]]}}, {"type": "Feature", "properties": {"Sample_ID": 17.05, "SiteID": "23702", "parcel_count": 652, "total_acres": 322.1, "median_parcel_value": 342526, "total_population": 1223.0, "pct_white": 50.8, "pct_black": 19.9, "pct_aian": 1.5, "pct_asian": 2.6, "pct_nhpi": 0.3, "pct_other": 15.2, "pct_two_plus": 9.6, "total_households": 568.0, "median_hh_income": 75646.0, "count_blocks": 26, "count_block_groups": 4}, "geometry": {"type": "Polygon", "coordinates": [[[-78.925535, 36.034563], [-78.926579, 36.03411], [-78.929038, 36.033871], [-78.929039, 36.033871], [-78.929039, 36.033871], [-78.929537, 36.034414], [-78.931471, 36.034442], [-78.933251, 36.033853], [-78.935539, 36.034018], [-78.935403, 36.037329], [-78.934791, 36.038592], [-78.933557, 36.03873], [-78.933327, 36.039807], [-78.932259, 36.040545], [-78.932099, 36.042819], [-78.925733, 36.043133], [-78.925141, 36.044189], [-78.92528, 36.046288], [-78.922537, 36.046311], [-78.922423, 36.04372], [-78.918943, 36.043575], [-78.918728, 36.042197], [-78.916991, 36.04206], [-78.915316, 36.040812], [-78.91953, 36.038292], [-78.919622, 36.038237], [-78.924149, 36.037388], [-78.92445, 36.03669], [-78.924719, 36.036066], [-78.9254, 36.03577], [-78.925535, 36.034563]]]}}, {"type": "Feature", "properties": {"Sample_ID": 17.09, "SiteID": "24430", "parcel_count": 1164, "total_acres": 1218.5, "median_parcel_value": 342137, "total_population": 5399.0, "pct_white": 15.1, "pct_black": 63.4, "pct_aian": 0.9, "pct_asian": 1.9, "pct_nhpi": 0.0, "pct_other": 11.6, "pct_two_plus": 7.2, "total_households": 1905.0, "median_hh_income": 19634.0, "count_blocks": 59, "count_block_groups": 14}, "geometry": {"type": "Polygon", "coordinates": [[[-78.871041, 36.058919], [-78.873645, 36.05697], [-78.87328, 36.056485], [-78.871003, 36.055848], [-78.87031, 36.055985], [-78.869606, 36.057013], [-78.868098, 36.056977], [-78.868933, 36.055472], [-78.868816, 36.055404], [-78.868909, 36.055271], [-78.86737, 36.05454], [-78.867034, 36.053817], [-78.866285, 36.05146], [-78.872185, 36.049813], [-78.874548, 36.049762], [-78.87753, 36.047645], [-78.878142, 36.050436], [-78.879423, 36.050572], [-78.881482, 36.049331], [-78.88196, 36.048792], [-78.881704, 36.047666], [-78.883238, 36.0476], [-78.884092, 36.046722], [-78.883754, 36.044121], [-78.882605, 36.043185], [-78.884038, 36.042795], [-78.884455, 36.04221], [-78.883858, 36.041197], [-78.882346, 36.041861], [-78.881841, 36.040572], [-78.88217, 36.03969], [-78.883332, 36.038693], [-78.884774, 36.03878], [-78.885772, 36.038009], [-78.885708, 36.037206], [-78.886777, 36.036653], [-78.886903, 36.035579], [-78.88918, 36.035397], [-78.889454, 36.034323], [-78.890804, 36.034254], [-78.890977, 36.034964], [-78.891057, 36.035259], [-78.892345, 36.034751], [-78.893052, 36.035185], [-78.89301, 36.035511], [-78.894622, 36.036278], [-78.896253, 36.037054], [-78.895947, 36.039063], [-78.896297, 36.040067], [-78.897307, 36.04016], [-78.898186, 36.039893], [-78.899128, 36.039608], [-78.900145, 36.041801], [-78.900257, 36.042015], [-78.900247, 36.042022], [-78.900383, 36.042314], [-78.899187, 36.0427], [-78.89942, 36.04318], [-78.900025, 36.043017], [-78.900711, 36.042831], [-78.90145, 36.044053], [-78.901635, 36.044357], [-78.901817, 36.044276], [-78.903343, 36.043754], [-78.903554, 36.043682], [-78.903788, 36.043684], [-78.904695, 36.043692], [-78.904427, 36.04617], [-78.905683, 36.046721], [-78.906243, 36.04754], [-78.905474, 36.050465], [-78.90305, 36.052944], [-78.902325, 36.05238], [-78.902757, 36.051405], [-78.902052, 36.051055], [-78.896403, 36.051631], [-78.895928, 36.050993], [-78.894298, 36.051064], [-78.893691, 36.051658], [-78.892418, 36.051849], [-78.892351, 36.054942], [-78.893566, 36.055783], [-78.893075, 36.059115], [-78.884945, 36.058887], [-78.884293, 36.059674], [-78.878279, 36.059675], [-78.877695, 36.058978], [-78.871041, 36.058919]]]}}, {"type": "Feature", "properties": {"Sample_ID": 17.12, "SiteID": "22500", "parcel_count": 1870, "total_acres": 1377.4, "median_parcel_value": 406439, "total_population": 3531.0, "pct_white": 76.1, "pct_black": 8.8, "pct_aian": 0.4, "pct_asian": 3.8, "pct_nhpi": 0.0, "pct_other": 3.5, "pct_two_plus": 7.4, "total_households": 1209.0, "median_hh_income": 139018.0, "count_blocks": 64, "count_block_groups": 8}, "geometry": {"type": "Polygon", "coordinates": [[[-78.963319, 36.056162], [-78.960855, 36.055986], [-78.96037, 36.055031], [-78.958444, 36.055015], [-78.95795, 36.054322], [-78.955363, 36.054271], [-78.95567, 36.049733], [-78.956877, 36.046495], [-78.95654, 36.04599], [-78.955501, 36.045838], [-78.955511, 36.043704], [-78.956281, 36.043208], [-78.956079, 36.04111], [-78.957447, 36.041096], [-78.95831, 36.039546], [-78.959349, 36.037537], [-78.965608, 36.036411], [-78.965911, 36.034476], [-78.976084, 36.037567], [-78.976747, 36.036451], [-78.976705, 36.032123], [-78.978782, 36.031976], [-78.978921, 36.032986], [-78.986817, 36.032448], [-78.98425, 36.047147], [-78.98335, 36.049689], [-78.978963, 36.051099], [-78.978693, 36.051885], [-78.979107, 36.052716], [-78.973895, 36.054758], [-78.971179, 36.056824], [-78.97103, 36.057524], [-78.969441, 36.057689], [-78.96839, 36.059144], [-78.964897, 36.058205], [-78.963319, 36.056162]]]}}, {"type": "Feature", "properties": {"Sample_ID": 18.01, "SiteID": "26532", "parcel_count": 26, "total_acres": 420.0, "median_parcel_value": 403408, "total_population": 50.0, "pct_white": 17.8, "pct_black": 12.2, "pct_aian": 3.2, "pct_asian": 0.2, "pct_nhpi": 0.0, "pct_other": 46.3, "pct_two_plus": 20.2, "total_households": 91.0, "median_hh_income": 43392.0, "count_blocks": 8, "count_block_groups": 2}, "geometry": {"type": "Polygon", "coordinates": [[[-78.86216, 36.07037], [-78.86055, 36.07064], [-78.852032, 36.066468], [-78.852025, 36.065514], [-78.855072, 36.065413], [-78.855448, 36.062729], [-78.851987, 36.060331], [-78.855287, 36.057017], [-78.86067, 36.053751], [-78.860754, 36.052603], [-78.861849, 36.053065], [-78.86374, 36.052241], [-78.864595, 36.054237], [-78.866064, 36.054395], [-78.867032, 36.053812], [-78.86737, 36.05454], [-78.868909, 36.055271], [-78.862201, 36.064884], [-78.862503, 36.065549], [-78.865362, 36.066337], [-78.863539, 36.070631], [-78.86216, 36.07037]]]}}, {"type": "Feature", "properties": {"Sample_ID": 18.02, "SiteID": "17506", "parcel_count": 1405, "total_acres": 1198.7, "median_parcel_value": 251316, "total_population": 3668.0, "pct_white": 13.2, "pct_black": 49.7, "pct_aian": 1.4, "pct_asian": 1.3, "pct_nhpi": 0.0, "pct_other": 26.8, "pct_two_plus": 7.6, "total_households": 974.0, "median_hh_income": 83494.0, "count_blocks": 59, "count_block_groups": 10}, "geometry": {"type": "Polygon", "coordinates": [[[-78.835783, 35.980198], [-78.835856, 35.978719], [-78.840068, 35.978753], [-78.841987, 35.97579], [-78.842054, 35.974674], [-78.843197, 35.974062], [-78.843824, 35.972726], [-78.847962, 35.972307], [-78.84834, 35.970758], [-78.849221, 35.969709], [-78.847321, 35.965774], [-78.850376, 35.965501], [-78.850635, 35.962961], [-78.853477, 35.963002], [-78.855326, 35.962002], [-78.858385, 35.964595], [-78.861999, 35.969115], [-78.864699, 35.968272], [-78.866576, 35.969158], [-78.866499, 35.969582], [-78.865535, 35.971276], [-78.866082, 35.97231], [-78.86763, 35.973368], [-78.867884, 35.973541], [-78.867716, 35.974493], [-78.868155, 35.97516], [-78.869118, 35.976622], [-78.86848, 35.97742], [-78.868155, 35.977826], [-78.867197, 35.978326], [-78.867196, 35.978326], [-78.863974, 35.980006], [-78.86153, 35.98394], [-78.860368, 35.986203], [-78.856819, 35.992068], [-78.856542, 35.99204], [-78.852697, 35.991653], [-78.85258, 35.988929], [-78.850706, 35.988309], [-78.847837, 35.986907], [-78.847493, 35.985887], [-78.844826, 35.984999], [-78.843726, 35.982559], [-78.842167, 35.982321], [-78.84142, 35.980728], [-78.835783, 35.980198]]]}}, {"type": "Feature", "properties": {"Sample_ID": 18.06, "SiteID": "17863", "parcel_count": 1588, "total_acres": 1369.9, "median_parcel_value": 351864, "total_population": 3735.0, "pct_white": 20.3, "pct_black": 60.8, "pct_aian": 1.0, "pct_asian": 1.4, "pct_nhpi": 0.0, "pct_other": 10.0, "pct_two_plus": 6.6, "total_households": 1521.0, "median_hh_income": 106783.0, "count_blocks": 58, "count_block_groups": 4}, "geometry": {"type": "Polygon", "coordinates": [[[-78.810583, 36.020838], [-78.809396, 36.02059], [-78.808818, 36.020904], [-78.806298, 36.019873], [-78.804509, 36.020039], [-78.803627, 36.017453], [-78.804541, 36.016647], [-78.802874, 36.013724], [-78.801159, 36.013149], [-78.800079, 36.013337], [-78.799911, 36.012009], [-78.799425, 36.011121], [-78.796273, 36.010927], [-78.795776, 36.007361], [-78.797392, 36.007208], [-78.797786, 36.00663], [-78.796741, 36.004349], [-78.796785, 36.003979], [-78.796955, 36.003034], [-78.799743, 36.003266], [-78.800327, 36.002338], [-78.80499, 36.002675], [-78.805239, 36.002098], [-78.804289, 36.000457], [-78.805147, 36.00009], [-78.806283, 36.000694], [-78.807006, 36.000482], [-78.806689, 35.997807], [-78.807876, 35.996398], [-78.809094, 35.996931], [-78.811185, 35.996507], [-78.812699, 35.998098], [-78.814311, 35.998683], [-78.814237, 35.999429], [-78.815938, 36.000667], [-78.817448, 36.000188], [-78.817805, 35.998269], [-78.817057, 35.99703], [-78.817406, 35.996363], [-78.818321, 35.995964], [-78.819224, 35.996153], [-78.819644, 35.997411], [-78.822144, 35.997914], [-78.822706, 35.999638], [-78.831276, 35.999926], [-78.8325, 36.001894], [-78.832418, 36.004091], [-78.833739, 36.004779], [-78.833116, 36.006295], [-78.832238, 36.007553], [-78.828344, 36.007586], [-78.826551, 36.008252], [-78.825882, 36.007834], [-78.824469, 36.006658], [-78.823243, 36.006759], [-78.823097, 36.008979], [-78.823663, 36.009484], [-78.823585, 36.010642], [-78.822347, 36.010967], [-78.820592, 36.012274], [-78.821379, 36.013347], [-78.82057, 36.01405], [-78.82125, 36.014754], [-78.82107, 36.015566], [-78.822578, 36.01635], [-78.823588, 36.01638], [-78.822358, 36.018288], [-78.821912, 36.018707], [-78.821242, 36.018124], [-78.820041, 36.018811], [-78.820235, 36.019933], [-78.811512, 36.021657], [-78.810583, 36.020838]]]}}, {"type": "Feature", "properties": {"Sample_ID": 19.0, "SiteID": "50881", "parcel_count": 1535, "total_acres": 568.4, "median_parcel_value": 589135, "total_population": 2263.0, "pct_white": 84.1, "pct_black": 3.9, "pct_aian": 0.0, "pct_asian": 6.5, "pct_nhpi": 0.0, "pct_other": 1.5, "pct_two_plus": 3.9, "total_households": 710.0, "median_hh_income": 104774.0, "count_blocks": 42, "count_block_groups": 4}, "geometry": {"type": "Polygon", "coordinates": [[[-78.794588, 35.940585], [-78.787104, 35.940375], [-78.783416, 35.938076], [-78.778078, 35.936201], [-78.77409, 35.933511], [-78.774845, 35.931404], [-78.77804, 35.928836], [-78.781501, 35.925139], [-78.782919, 35.924572], [-78.783225, 35.92631], [-78.786256, 35.926495], [-78.786846, 35.926182], [-78.786911, 35.925363], [-78.790373, 35.924653], [-78.791669, 35.924913], [-78.791401, 35.927168], [-78.792145, 35.930364], [-78.792995, 35.931063], [-78.79324, 35.932393], [-78.795228, 35.933779], [-78.796492, 35.940393], [-78.797578, 35.94139], [-78.797568, 35.941931], [-78.794588, 35.940585]]]}}, {"type": "Feature", "properties": {"Sample_ID": 20.2, "SiteID": "30804", "parcel_count": 2147, "total_acres": 1489.2, "median_parcel_value": 505038, "total_population": 4390.0, "pct_white": 60.4, "pct_black": 17.9, "pct_aian": 0.1, "pct_asian": 10.1, "pct_nhpi": 0.0, "pct_other": 2.6, "pct_two_plus": 8.8, "total_households": 1676.0, "median_hh_income": 118758.0, "count_blocks": 70, "count_block_groups": 5}, "geometry": {"type": "Polygon", "coordinates": [[[-78.943496, 35.911549], [-78.943381, 35.911027], [-78.943343, 35.910845], [-78.941803, 35.90993], [-78.941795, 35.909868], [-78.941765, 35.909265], [-78.941717, 35.90843], [-78.941704, 35.908212], [-78.941696, 35.908074], [-78.941684, 35.907865], [-78.941681, 35.907809], [-78.94168, 35.907792], [-78.937594, 35.908367], [-78.935659, 35.908638], [-78.935683, 35.908599], [-78.939743, 35.90202], [-78.940881, 35.898386], [-78.940447, 35.897834], [-78.938921, 35.897789], [-78.93856, 35.897074], [-78.937891, 35.896926], [-78.937757, 35.89616], [-78.939611, 35.895635], [-78.941081, 35.894338], [-78.942461, 35.894477], [-78.943091, 35.890915], [-78.938946, 35.890154], [-78.939608, 35.888406], [-78.93988, 35.886817], [-78.943004, 35.888691], [-78.943846, 35.888551], [-78.944709, 35.886191], [-78.946872, 35.883964], [-78.948729, 35.877386], [-78.949547, 35.87438], [-78.947223, 35.871445], [-78.95612, 35.871511], [-78.957805, 35.871882], [-78.956197, 35.874264], [-78.957696, 35.876017], [-78.959067, 35.877538], [-78.959901, 35.878714], [-78.95902, 35.881158], [-78.957845, 35.88213], [-78.955874, 35.881697], [-78.955287, 35.882358], [-78.955826, 35.883017], [-78.957186, 35.885057], [-78.958104, 35.885889], [-78.95942, 35.885746], [-78.959368, 35.888419], [-78.960651, 35.888437], [-78.961561, 35.890152], [-78.961791, 35.893755], [-78.960662, 35.893812], [-78.960322, 35.89462], [-78.958508, 35.895129], [-78.959468, 35.902659], [-78.955857, 35.904348], [-78.954992, 35.905801], [-78.954748, 35.906929], [-78.956355, 35.909302], [-78.953356, 35.911074], [-78.951497, 35.911085], [-78.950033, 35.911093], [-78.948984, 35.911097], [-78.948402, 35.9111], [-78.948402, 35.911102], [-78.948401, 35.911102], [-78.948399, 35.911129], [-78.948372, 35.911374], [-78.948361, 35.911379], [-78.94835, 35.911378], [-78.948183, 35.911405], [-78.948014, 35.911426], [-78.947965, 35.911433], [-78.947777, 35.91147], [-78.94776, 35.911446], [-78.947746, 35.911434], [-78.947644, 35.911351], [-78.947564, 35.911279], [-78.947558, 35.911274], [-78.947526, 35.911299], [-78.947505, 35.911317], [-78.947266, 35.911505], [-78.947274, 35.911698], [-78.947301, 35.912371], [-78.947291, 35.912368], [-78.946889, 35.912285], [-78.946735, 35.912251], [-78.946585, 35.91222], [-78.94658, 35.912219], [-78.946566, 35.912216], [-78.946447, 35.912191], [-78.946334, 35.912165], [-78.945656, 35.912008], [-78.944752, 35.911838], [-78.944601, 35.91181], [-78.944517, 35.911792], [-78.944426, 35.911774], [-78.944251, 35.91174], [-78.943785, 35.911644], [-78.943504, 35.911586], [-78.943496, 35.911549]]]}}, {"type": "Feature", "properties": {"Sample_ID": 20.23, "SiteID": "03442", "parcel_count": 793, "total_acres": 566.6, "median_parcel_value": 476406, "total_population": 2519.0, "pct_white": 64.7, "pct_black": 20.7, "pct_aian": 0.5, "pct_asian": 5.3, "pct_nhpi": 0.0, "pct_other": 1.7, "pct_two_plus": 7.1, "total_households": 1258.0, "median_hh_income": 105022.0, "count_blocks": 27, "count_block_groups": 9}, "geometry": {"type": "Polygon", "coordinates": [[[-78.937452, 35.92272], [-78.934991, 35.92142], [-78.933836, 35.92171], [-78.933588, 35.92034], [-78.932919, 35.919901], [-78.93322, 35.918724], [-78.931066, 35.917853], [-78.935659, 35.908638], [-78.937594, 35.908367], [-78.94168, 35.907792], [-78.941681, 35.907809], [-78.941684, 35.907865], [-78.941696, 35.908074], [-78.941704, 35.908212], [-78.941717, 35.90843], [-78.941765, 35.909265], [-78.941795, 35.909868], [-78.941803, 35.90993], [-78.943343, 35.910845], [-78.943381, 35.911027], [-78.943496, 35.911549], [-78.943504, 35.911586], [-78.943785, 35.911644], [-78.944251, 35.91174], [-78.944426, 35.911774], [-78.944517, 35.911792], [-78.944601, 35.91181], [-78.944752, 35.911838], [-78.945656, 35.912008], [-78.946334, 35.912165], [-78.946447, 35.912191], [-78.946566, 35.912216], [-78.94658, 35.912219], [-78.946585, 35.91222], [-78.946735, 35.912251], [-78.946889, 35.912285], [-78.947291, 35.912368], [-78.947301, 35.912371], [-78.947274, 35.911698], [-78.947266, 35.911505], [-78.947505, 35.911317], [-78.947526, 35.911299], [-78.947558, 35.911274], [-78.947564, 35.911279], [-78.947644, 35.911351], [-78.947746, 35.911434], [-78.94776, 35.911446], [-78.947777, 35.91147], [-78.947965, 35.911433], [-78.948014, 35.911426], [-78.948183, 35.911405], [-78.94835, 35.911378], [-78.948361, 35.911379], [-78.948372, 35.911374], [-78.948399, 35.911129], [-78.948401, 35.911102], [-78.948402, 35.911102], [-78.948402, 35.9111], [-78.948984, 35.911097], [-78.950033, 35.911093], [-78.951497, 35.911085], [-78.951645, 35.911086], [-78.950503, 35.911992], [-78.950531, 35.912603], [-78.95121, 35.912857], [-78.952599, 35.912335], [-78.951925, 35.91326], [-78.949612, 35.914504], [-78.950272, 35.915821], [-78.952713, 35.917596], [-78.951268, 35.91941], [-78.951188, 35.921899], [-78.947817, 35.921745], [-78.945134, 35.923364], [-78.942259, 35.923702], [-78.941812, 35.924519], [-78.93961, 35.924881], [-78.939299, 35.924465], [-78.940357, 35.923675], [-78.940038, 35.92299], [-78.937452, 35.92272]]]}}, {"type": "Feature", "properties": {"Sample_ID": 22.0, "SiteID": "54900", "parcel_count": 335, "total_acres": 81.7, "median_parcel_value": 686988, "total_population": 708.0, "pct_white": 80.1, "pct_black": 8.7, "pct_aian": 0.7, "pct_asian": 5.0, "pct_nhpi": 0.0, "pct_other": 0.7, "pct_two_plus": 4.8, "total_households": 310.0, "median_hh_income": 144345.0, "count_blocks": 32, "count_block_groups": 2}, "geometry": {"type": "MultiPolygon", "coordinates": [[[[-78.897161, 36.001491], [-78.897162, 36.00149], [-78.897171, 36.001491], [-78.897161, 36.001491]]], [[[-78.900065, 36.002331], [-78.899384, 36.001423], [-78.897173, 36.001491], [-78.897258, 36.001125], [-78.897365, 36.000671], [-78.896309, 36.000298], [-78.896309, 36.000297], [-78.89629, 36.000291], [-78.898866, 35.997281], [-78.899778, 35.996864], [-78.899797, 35.996855], [-78.899794, 35.996834], [-78.899691, 35.996066], [-78.89915, 35.99565], [-78.899563, 35.995003], [-78.900312, 35.995369], [-78.900316, 35.995371], [-78.900352, 35.995388], [-78.9006, 35.994989], [-78.900607, 35.994977], [-78.900614, 35.994966], [-78.900816, 35.995088], [-78.901331, 35.995362], [-78.901721, 35.995553], [-78.902222, 35.995799], [-78.902424, 35.995587], [-78.903914, 35.996421], [-78.904314, 35.996836], [-78.904886, 35.99743], [-78.905123, 35.997675], [-78.904355, 35.99866], [-78.903207, 35.998981], [-78.903015, 35.999765], [-78.90153, 36.000317], [-78.901318, 36.001915], [-78.900703, 36.002322], [-78.900065, 36.002331]]]]}}, {"type": "Feature", "properties": {"Sample_ID": 23.0, "SiteID": "28080", "parcel_count": 415, "total_acres": 248.9, "median_parcel_value": 406438, "total_population": 2354.0, "pct_white": 40.0, "pct_black": 44.7, "pct_aian": 0.4, "pct_asian": 4.1, "pct_nhpi": 0.0, "pct_other": 5.0, "pct_two_plus": 5.8, "total_households": 1131.0, "median_hh_income": 70033.0, "count_blocks": 79, "count_block_groups": 5}, "geometry": {"type": "Polygon", "coordinates": [[[-78.903914, 35.996421], [-78.902424, 35.995587], [-78.902222, 35.995799], [-78.901721, 35.995553], [-78.901331, 35.995362], [-78.900816, 35.995088], [-78.900614, 35.994966], [-78.900607, 35.994977], [-78.9006, 35.994989], [-78.900352, 35.995388], [-78.900316, 35.995371], [-78.900312, 35.995369], [-78.899563, 35.995003], [-78.89915, 35.99565], [-78.898966, 35.995853], [-78.898093, 35.995795], [-78.897792, 35.995237], [-78.898407, 35.994505], [-78.898069, 35.994294], [-78.898516, 35.993705], [-78.897625, 35.993214], [-78.89664, 35.994268], [-78.894657, 35.993195], [-78.895253, 35.992498], [-78.895608, 35.99211], [-78.895484, 35.992033], [-78.893318, 35.99069], [-78.893387, 35.9901], [-78.894394, 35.989115], [-78.894667, 35.988917], [-78.893842, 35.987204], [-78.894127, 35.98669], [-78.894158, 35.986635], [-78.895098, 35.987005], [-78.895522, 35.987141], [-78.895786, 35.987275], [-78.895867, 35.987316], [-78.896595, 35.987687], [-78.897105, 35.986834], [-78.896705, 35.985869], [-78.897773, 35.985028], [-78.89768, 35.983782], [-78.899021, 35.984247], [-78.900444, 35.983977], [-78.901499, 35.983651], [-78.902151, 35.982783], [-78.902151, 35.982782], [-78.903027, 35.982568], [-78.903746, 35.983933], [-78.906436, 35.983802], [-78.908938, 35.984526], [-78.907702, 35.986868], [-78.904099, 35.987791], [-78.903206, 35.989483], [-78.902457, 35.989789], [-78.902753, 35.990547], [-78.901262, 35.994353], [-78.904804, 35.996504], [-78.904804, 35.996504], [-78.904314, 35.996836], [-78.903914, 35.996421]]]}}, {"type": "Feature", "properties": {"Sample_ID": 7.0, "SiteID": "09289", "parcel_count": 1369, "total_acres": 682.9, "median_parcel_value": 450877.5, "total_population": 3792.0, "pct_white": 48.0, "pct_black": 30.9, "pct_aian": 1.0, "pct_asian": 1.8, "pct_nhpi": 0.1, "pct_other": 10.7, "pct_two_plus": 7.5, "total_households": 1769.0, "median_hh_income": 89266.0, "count_blocks": 63, "count_block_groups": 9}, "geometry": {"type": "Polygon", "coordinates": [[[-78.915954, 35.969059], [-78.916461, 35.967211], [-78.918583, 35.965781], [-78.9188, 35.965127], [-78.919604, 35.965325], [-78.92066, 35.964649], [-78.922327, 35.966386], [-78.922477, 35.967261], [-78.924758, 35.968733], [-78.925544, 35.968507], [-78.926502, 35.969063], [-78.926511, 35.969843], [-78.928596, 35.97101], [-78.936615, 35.971207], [-78.936598, 35.972023], [-78.937412, 35.972469], [-78.936594, 35.974986], [-78.937832, 35.976299], [-78.937619, 35.978661], [-78.936156, 35.979536], [-78.93501, 35.979572], [-78.93531, 35.980539], [-78.934244, 35.982194], [-78.930874, 35.982907], [-78.92905, 35.98514], [-78.927303, 35.986123], [-78.925411, 35.986686], [-78.924647, 35.986176], [-78.924709, 35.985555], [-78.924712, 35.98552], [-78.924793, 35.984711], [-78.923367, 35.982514], [-78.920921, 35.981952], [-78.920417, 35.980599], [-78.920897, 35.979918], [-78.92057, 35.978694], [-78.919326, 35.978311], [-78.919382, 35.976456], [-78.917971, 35.976211], [-78.917833, 35.975016], [-78.916394, 35.974004], [-78.914267, 35.97345], [-78.915063, 35.971512], [-78.914414, 35.97093], [-78.914993, 35.969343], [-78.915954, 35.969059]]]}}, {"type": "Feature", "properties": {"Sample_ID": 20.29, "SiteID": "02201", "parcel_count": 3136, "total_acres": 3535.1, "median_parcel_value": 504839, "total_population": 9980.0, "pct_white": 58.3, "pct_black": 16.3, "pct_aian": 0.4, "pct_asian": 9.4, "pct_nhpi": 0.1, "pct_other": 6.4, "pct_two_plus": 9.1, "total_households": 4220.0, "median_hh_income": 104845.0, "count_blocks": 130, "count_block_groups": 14}, "geometry": {"type": "Polygon", "coordinates": [[[-78.978484, 36.023654], [-78.977402, 36.0232], [-78.976802, 36.023478], [-78.976698, 36.024203], [-78.974982, 36.024322], [-78.97251, 36.023759], [-78.972053, 36.025474], [-78.970594, 36.025393], [-78.97007, 36.026038], [-78.967418, 36.026095], [-78.966237, 36.026343], [-78.965893, 36.026847], [-78.964595, 36.026839], [-78.964091, 36.027928], [-78.96295, 36.028103], [-78.962837, 36.028951], [-78.961689, 36.028411], [-78.960712, 36.028732], [-78.958281, 36.025172], [-78.957502, 36.025058], [-78.956627, 36.02412], [-78.955633, 36.024409], [-78.955076, 36.024], [-78.955693, 36.021949], [-78.955155, 36.021171], [-78.950707, 36.018496], [-78.952939, 36.015344], [-78.956302, 36.011989], [-78.958506, 36.004479], [-78.961674, 36.000722], [-78.961648, 36.000677], [-78.969032, 35.990932], [-78.968532, 35.989753], [-78.967922, 35.98749], [-78.968561, 35.986593], [-78.967717, 35.985907], [-78.967716, 35.984098], [-78.968875, 35.984066], [-78.96956, 35.984553], [-78.970495, 35.983972], [-78.969953, 35.983265], [-78.971056, 35.981724], [-78.974559, 35.980136], [-78.974881, 35.977572], [-78.977022, 35.977518], [-78.977018, 35.975552], [-78.975119, 35.975479], [-78.976943, 35.971796], [-78.976709, 35.967647], [-78.976173, 35.965508], [-78.97708, 35.961962], [-78.976535, 35.96147], [-78.975405, 35.961978], [-78.97394, 35.96022], [-78.975054, 35.959918], [-78.979468, 35.958042], [-78.980475, 35.958092], [-78.981548, 35.959145], [-78.986598, 35.956616], [-78.98986, 35.955135], [-78.990625, 35.954685], [-78.989254, 35.953158], [-78.991525, 35.95266], [-78.991696, 35.950952], [-78.993449, 35.951048], [-78.994274, 35.951435], [-78.994311, 35.95302], [-78.997561, 35.951587], [-79.000626, 35.953282], [-78.998723, 35.961507], [-78.996337, 35.965075], [-78.996405, 35.970076], [-78.995853, 35.974194], [-78.992394, 35.975955], [-78.992155, 35.983521], [-78.990359, 35.984441], [-78.991365, 35.987021], [-78.993382, 35.988531], [-78.99392, 35.991743], [-78.993516, 35.99406], [-78.989242, 35.994178], [-78.988873, 35.996124], [-78.986865, 35.996128], [-78.986758, 35.994676], [-78.98539, 35.994445], [-78.982816, 35.995392], [-78.97921, 35.994966], [-78.979173, 35.992702], [-78.978515, 35.992267], [-78.974577, 35.994445], [-78.974193, 35.994422], [-78.970578, 35.999296], [-78.969288, 36.002112], [-78.964754, 36.004004], [-78.96723, 36.007906], [-78.971706, 36.010437], [-78.974604, 36.012744], [-78.981086, 36.015853], [-78.984231, 36.02005], [-78.987674, 36.021978], [-78.988467, 36.022993], [-78.9874, 36.029108], [-78.97837, 36.027275], [-78.978484, 36.023654]]]}}, {"type": "Feature", "properties": {"Sample_ID": 3.02, "SiteID": "21349", "parcel_count": 2562, "total_acres": 847.6, "median_parcel_value": 573925, "total_population": 7190.0, "pct_white": 69.3, "pct_black": 11.4, "pct_aian": 0.9, "pct_asian": 3.5, "pct_nhpi": 0.0, "pct_other": 5.7, "pct_two_plus": 9.2, "total_households": 3707.0, "median_hh_income": 96637.0, "count_blocks": 183, "count_block_groups": 14}, "geometry": {"type": "Polygon", "coordinates": [[[-78.899629, 36.016407], [-78.898873, 36.013441], [-78.89729, 36.013214], [-78.897026, 36.012389], [-78.895217, 36.011971], [-78.895001, 36.010823], [-78.893742, 36.010681], [-78.89307, 36.010055], [-78.893412, 36.008698], [-78.894152, 36.008512], [-78.894897, 36.007228], [-78.894942, 36.006116], [-78.894258, 36.005257], [-78.895231, 36.004608], [-78.895447, 36.001271], [-78.897162, 36.00149], [-78.897171, 36.001491], [-78.897173, 36.001491], [-78.897173, 36.001491], [-78.897258, 36.001125], [-78.897365, 36.000671], [-78.896309, 36.000298], [-78.896309, 36.000297], [-78.89629, 36.000291], [-78.898866, 35.997281], [-78.899778, 35.996864], [-78.899797, 35.996855], [-78.899794, 35.996834], [-78.899691, 35.996066], [-78.89915, 35.99565], [-78.899563, 35.995003], [-78.900312, 35.995369], [-78.900316, 35.995371], [-78.900352, 35.995388], [-78.9006, 35.994989], [-78.900607, 35.994977], [-78.900614, 35.994966], [-78.900816, 35.995088], [-78.901331, 35.995362], [-78.901721, 35.995553], [-78.902222, 35.995799], [-78.902424, 35.995587], [-78.903914, 35.996421], [-78.904314, 35.996836], [-78.904804, 35.996504], [-78.904804, 35.996504], [-78.904804, 35.996504], [-78.905844, 35.997045], [-78.910666, 35.997059], [-78.913185, 35.996719], [-78.913214, 35.996719], [-78.915085, 35.996723], [-78.915098, 35.996734], [-78.915172, 35.996731], [-78.916066, 35.997493], [-78.916312, 35.998275], [-78.916446, 35.998701], [-78.916809, 35.999854], [-78.917401, 35.999908], [-78.917601, 36.000161], [-78.917027, 36.00143], [-78.916261, 36.002453], [-78.915347, 36.003706], [-78.915345, 36.00371], [-78.912972, 36.002453], [-78.912958, 36.002445], [-78.912303, 36.008052], [-78.912397, 36.008845], [-78.91251, 36.009164], [-78.912483, 36.009557], [-78.912872, 36.009588], [-78.912871, 36.009656], [-78.912863, 36.010139], [-78.912007, 36.010137], [-78.911679, 36.010136], [-78.91165, 36.010563], [-78.911619, 36.011023], [-78.911316, 36.011022], [-78.91111, 36.011022], [-78.910761, 36.015544], [-78.910652, 36.015789], [-78.909642, 36.015735], [-78.908874, 36.015877], [-78.90889, 36.016104], [-78.908375, 36.016127], [-78.908106, 36.01709], [-78.907576, 36.017072], [-78.905845, 36.017012], [-78.905845, 36.017012], [-78.903617, 36.016936], [-78.902813, 36.016908], [-78.899629, 36.016407]]]}}, {"type": "Feature", "properties": {"Sample_ID": 3.01, "SiteID": "31067", "parcel_count": 1155, "total_acres": 475.4, "median_parcel_value": 474784, "total_population": 5575.0, "pct_white": 49.8, "pct_black": 30.8, "pct_aian": 0.3, "pct_asian": 7.2, "pct_nhpi": 0.0, "pct_other": 5.1, "pct_two_plus": 6.8, "total_households": 2129.0, "median_hh_income": 49814.0, "count_blocks": 88, "count_block_groups": 9}, "geometry": {"type": "Polygon", "coordinates": [[[-78.913416, 36.018805], [-78.91368, 36.01704], [-78.914917, 36.016633], [-78.914499, 36.015254], [-78.915084, 36.014511], [-78.915161, 36.012466], [-78.914012, 36.012014], [-78.914099, 36.009968], [-78.912872, 36.009588], [-78.912483, 36.009557], [-78.91251, 36.009164], [-78.912397, 36.008845], [-78.912303, 36.008052], [-78.912958, 36.002445], [-78.912972, 36.002453], [-78.915345, 36.00371], [-78.919819, 36.00608], [-78.926302, 36.007198], [-78.929378, 36.008348], [-78.931342, 36.009919], [-78.933877, 36.013313], [-78.932339, 36.014112], [-78.932116, 36.015959], [-78.931599, 36.015933], [-78.930876, 36.014506], [-78.930868, 36.014504], [-78.93068, 36.014469], [-78.928005, 36.013977], [-78.927965, 36.014013], [-78.926696, 36.015166], [-78.926623, 36.015239], [-78.926532, 36.016281], [-78.923114, 36.016156], [-78.923089, 36.016155], [-78.923069, 36.016191], [-78.922534, 36.017129], [-78.92249, 36.017206], [-78.9191, 36.017181], [-78.919028, 36.018618], [-78.918432, 36.018603], [-78.918412, 36.018256], [-78.916066, 36.01819], [-78.915974, 36.019384], [-78.914735, 36.020054], [-78.913416, 36.018805]]]}}, {"type": "Feature", "properties": {"Sample_ID": 18.08, "SiteID": "30976", "parcel_count": 2694, "total_acres": 846.6, "median_parcel_value": 544415, "total_population": 3621.0, "pct_white": 46.8, "pct_black": 34.5, "pct_aian": 0.7, "pct_asian": 6.9, "pct_nhpi": 0.0, "pct_other": 3.1, "pct_two_plus": 8.0, "total_households": 579.0, "median_hh_income": 161144.0, "count_blocks": 46, "count_block_groups": 4}, "geometry": {"type": "Polygon", "coordinates": [[[-78.822105, 35.942025], [-78.824159, 35.943338], [-78.825519, 35.942787], [-78.828357, 35.944114], [-78.837334, 35.948925], [-78.83707, 35.950378], [-78.835694, 35.951506], [-78.832829, 35.952486], [-78.830963, 35.953757], [-78.830006, 35.95462], [-78.828048, 35.955191], [-78.825926, 35.956276], [-78.824601, 35.956919], [-78.824179, 35.95597], [-78.823211, 35.955892], [-78.8193, 35.958157], [-78.818099, 35.957042], [-78.815328, 35.958661], [-78.812499, 35.955663], [-78.809447, 35.957944], [-78.808494, 35.957289], [-78.804836, 35.959862], [-78.806747, 35.960991], [-78.806913, 35.964365], [-78.804988, 35.967092], [-78.799286, 35.966714], [-78.799241, 35.959814], [-78.801802, 35.958871], [-78.801889, 35.954927], [-78.804863, 35.954809], [-78.804844, 35.952756], [-78.80824, 35.95277], [-78.809042, 35.95131], [-78.8107, 35.951827], [-78.812976, 35.950781], [-78.813984, 35.949789], [-78.814907, 35.949262], [-78.815009, 35.948175], [-78.818359, 35.948043], [-78.820261, 35.948389], [-78.820113, 35.942717], [-78.822105, 35.942025]]]}}]}